CCSDS_OMM_VERS = 2.0
CREATION_DATE  = 
ORIGINATOR     = 

OBJECT_NAME    = STARLINK-35453
OBJECT_ID      = 2025-223AA
CENTER_NAME    = EARTH
REF_FRAME      = TEME
TIME_SYSTEM    = UTC
MEAN_ELEMENT_THEORY = SGP/SGP4

EPOCH          = 2025-11-02T12:00:02.000160
MEAN_MOTION    = 15.39576923
ECCENTRICITY   = .0000894
INCLINATION    = 53.1604
RA_OF_ASC_NODE = 166.7750
ARG_OF_PERICENTER = 108.5552
MEAN_ANOMALY   = 357.5777

EPHEMERIS_TYPE = 0
CLASSIFICATION_TYPE = U
NORAD_CAT_ID   = 65878
ELEMENT_SET_NO = 999
REV_AT_EPOCH   = 602
BSTAR          = .18883E-2
MEAN_MOTION_DOT = .75776E-3
MEAN_MOTION_DDOT = 0

CCSDS_OMM_VERS = 2.0
CREATION_DATE  = 
ORIGINATOR     = 

OBJECT_NAME    = STARLINK-35418
OBJECT_ID      = 2025-223AB
CENTER_NAME    = EARTH
REF_FRAME      = TEME
TIME_SYSTEM    = UTC
MEAN_ELEMENT_THEORY = SGP/SGP4

EPOCH          = 2025-10-31T21:57:35.131680
MEAN_MOTION    = 15.49409011
ECCENTRICITY   = .00014246
INCLINATION    = 53.1607
RA_OF_ASC_NODE = 174.1577
ARG_OF_PERICENTER = 101.4176
MEAN_ANOMALY   = 258.6993

EPHEMERIS_TYPE = 0
CLASSIFICATION_TYPE = U
NORAD_CAT_ID   = 65879
ELEMENT_SET_NO = 999
REV_AT_EPOCH   = 446
BSTAR          = .17736881E-2
MEAN_MOTION_DOT = .99818E-3
MEAN_MOTION_DDOT = 0

CCSDS_OMM_VERS = 2.0
CREATION_DATE  = 
ORIGINATOR     = 

OBJECT_NAME    = STARLINK-35445
OBJECT_ID      = 2025-223AC
CENTER_NAME    = EARTH
REF_FRAME      = TEME
TIME_SYSTEM    = UTC
MEAN_ELEMENT_THEORY = SGP/SGP4

EPOCH          = 2025-11-02T12:00:02.000160
MEAN_MOTION    = 15.39565257
ECCENTRICITY   = .0000937
INCLINATION    = 53.1601
RA_OF_ASC_NODE = 166.6726
ARG_OF_PERICENTER = 98.0326
MEAN_ANOMALY   = 59.6208

EPHEMERIS_TYPE = 0
CLASSIFICATION_TYPE = U
NORAD_CAT_ID   = 65880
ELEMENT_SET_NO = 999
REV_AT_EPOCH   = 587
BSTAR          = .20497E-2
MEAN_MOTION_DOT = .82326E-3
MEAN_MOTION_DDOT = 0

CCSDS_OMM_VERS = 2.0
CREATION_DATE  = 
ORIGINATOR     = 

OBJECT_NAME    = STARLINK-35464
OBJECT_ID      = 2025-223AD
CENTER_NAME    = EARTH
REF_FRAME      = TEME
TIME_SYSTEM    = UTC
MEAN_ELEMENT_THEORY = SGP/SGP4

EPOCH          = 2025-11-01T14:58:54.228000
MEAN_MOTION    = 15.49317645
ECCENTRICITY   = .00014928
INCLINATION    = 53.1604
RA_OF_ASC_NODE = 170.7625
ARG_OF_PERICENTER = 85.5620
MEAN_ANOMALY   = 274.5560

EPHEMERIS_TYPE = 0
CLASSIFICATION_TYPE = U
NORAD_CAT_ID   = 65881
ELEMENT_SET_NO = 999
REV_AT_EPOCH   = 457
BSTAR          = .14409378E-2
MEAN_MOTION_DOT = .80546E-3
MEAN_MOTION_DDOT = 0

CCSDS_OMM_VERS = 2.0
CREATION_DATE  = 
ORIGINATOR     = 

OBJECT_NAME    = STARLINK-35270
OBJECT_ID      = 2025-224A
CENTER_NAME    = EARTH
REF_FRAME      = TEME
TIME_SYSTEM    = UTC
MEAN_ELEMENT_THEORY = SGP/SGP4

EPOCH          = 2025-11-02T03:50:14.494272
MEAN_MOTION    = 15.49335550
ECCENTRICITY   = .00010884
INCLINATION    = 53.1598
RA_OF_ASC_NODE = 245.5125
ARG_OF_PERICENTER = 84.2297
MEAN_ANOMALY   = 275.8836

EPHEMERIS_TYPE = 0
CLASSIFICATION_TYPE = U
NORAD_CAT_ID   = 65882
ELEMENT_SET_NO = 999
REV_AT_EPOCH   = 527
BSTAR          = .13292948E-2
MEAN_MOTION_DOT = .74257E-3
MEAN_MOTION_DDOT = 0

CCSDS_OMM_VERS = 2.0
CREATION_DATE  = 
ORIGINATOR     = 

OBJECT_NAME    = STARLINK-35367
OBJECT_ID      = 2025-224B
CENTER_NAME    = EARTH
REF_FRAME      = TEME
TIME_SYSTEM    = UTC
MEAN_ELEMENT_THEORY = SGP/SGP4

EPOCH          = 2025-11-02T02:16:21.897696
MEAN_MOTION    = 15.49337794
ECCENTRICITY   = .00013511
INCLINATION    = 53.1597
RA_OF_ASC_NODE = 245.8165
ARG_OF_PERICENTER = 90.3489
MEAN_ANOMALY   = 269.7675

EPHEMERIS_TYPE = 0
CLASSIFICATION_TYPE = U
NORAD_CAT_ID   = 65883
ELEMENT_SET_NO = 999
REV_AT_EPOCH   = 526
BSTAR          = .19233035E-2
MEAN_MOTION_DOT = .10812E-2
MEAN_MOTION_DDOT = 0

CCSDS_OMM_VERS = 2.0
CREATION_DATE  = 
ORIGINATOR     = 

OBJECT_NAME    = STARLINK-35384
OBJECT_ID      = 2025-224C
CENTER_NAME    = EARTH
REF_FRAME      = TEME
TIME_SYSTEM    = UTC
MEAN_ELEMENT_THEORY = SGP/SGP4

EPOCH          = 2025-11-02T09:59:21.685344
MEAN_MOTION    = 15.51059072
ECCENTRICITY   = .0008709
INCLINATION    = 53.1599
RA_OF_ASC_NODE = 244.2664
ARG_OF_PERICENTER = 339.6063
MEAN_ANOMALY   = 20.4598

EPHEMERIS_TYPE = 0
CLASSIFICATION_TYPE = U
NORAD_CAT_ID   = 65884
ELEMENT_SET_NO = 999
REV_AT_EPOCH   = 531
BSTAR          = .10536E-1
MEAN_MOTION_DOT = .680195E-2
MEAN_MOTION_DDOT = 0

CCSDS_OMM_VERS = 2.0
CREATION_DATE  = 
ORIGINATOR     = 

OBJECT_NAME    = STARLINK-35415
OBJECT_ID      = 2025-224D
CENTER_NAME    = EARTH
REF_FRAME      = TEME
TIME_SYSTEM    = UTC
MEAN_ELEMENT_THEORY = SGP/SGP4

EPOCH          = 2025-11-02T08:26:44.691360
MEAN_MOTION    = 15.46145336
ECCENTRICITY   = .0007539
INCLINATION    = 53.1599
RA_OF_ASC_NODE = 244.5752
ARG_OF_PERICENTER = 114.6042
MEAN_ANOMALY   = 245.5752

EPHEMERIS_TYPE = 0
CLASSIFICATION_TYPE = U
NORAD_CAT_ID   = 65885
ELEMENT_SET_NO = 999
REV_AT_EPOCH   = 525
BSTAR          = -.25014E-1
MEAN_MOTION_DOT = -.1142481E-1
MEAN_MOTION_DDOT = 0

CCSDS_OMM_VERS = 2.0
CREATION_DATE  = 
ORIGINATOR     = 

OBJECT_NAME    = STARLINK-35413
OBJECT_ID      = 2025-224E
CENTER_NAME    = EARTH
REF_FRAME      = TEME
TIME_SYSTEM    = UTC
MEAN_ELEMENT_THEORY = SGP/SGP4

EPOCH          = 2025-11-02T03:46:17.212224
MEAN_MOTION    = 15.49358571
ECCENTRICITY   = .00017725
INCLINATION    = 53.1597
RA_OF_ASC_NODE = 245.4918
ARG_OF_PERICENTER = 100.5479
MEAN_ANOMALY   = 259.5730

EPHEMERIS_TYPE = 0
CLASSIFICATION_TYPE = U
NORAD_CAT_ID   = 65886
ELEMENT_SET_NO = 999
REV_AT_EPOCH   = 522
BSTAR          = .15937922E-2
MEAN_MOTION_DOT = .89369E-3
MEAN_MOTION_DDOT = 0

CCSDS_OMM_VERS = 2.0
CREATION_DATE  = 
ORIGINATOR     = 

OBJECT_NAME    = STARLINK-35332
OBJECT_ID      = 2025-224F
CENTER_NAME    = EARTH
REF_FRAME      = TEME
TIME_SYSTEM    = UTC
MEAN_ELEMENT_THEORY = SGP/SGP4

EPOCH          = 2025-11-02T03:45:47.762784
MEAN_MOTION    = 15.49342042
ECCENTRICITY   = .00022588
INCLINATION    = 53.1595
RA_OF_ASC_NODE = 245.4888
ARG_OF_PERICENTER = 79.7540
MEAN_ANOMALY   = 280.3724

EPHEMERIS_TYPE = 0
CLASSIFICATION_TYPE = U
NORAD_CAT_ID   = 65887
ELEMENT_SET_NO = 999
REV_AT_EPOCH   = 530
BSTAR          = .20746323E-2
MEAN_MOTION_DOT = .116814E-2
MEAN_MOTION_DDOT = 0

CCSDS_OMM_VERS = 2.0
CREATION_DATE  = 
ORIGINATOR     = 

OBJECT_NAME    = STARLINK-35362
OBJECT_ID      = 2025-224G
CENTER_NAME    = EARTH
REF_FRAME      = TEME
TIME_SYSTEM    = UTC
MEAN_ELEMENT_THEORY = SGP/SGP4

EPOCH          = 2025-11-02T03:49:45.012000
MEAN_MOTION    = 15.49333307
ECCENTRICITY   = .00015006
INCLINATION    = 53.1599
RA_OF_ASC_NODE = 245.5089
ARG_OF_PERICENTER = 81.9058
MEAN_ANOMALY   = 278.2122

EPHEMERIS_TYPE = 0
CLASSIFICATION_TYPE = U
NORAD_CAT_ID   = 65888
ELEMENT_SET_NO = 999
REV_AT_EPOCH   = 527
BSTAR          = .13351649E-2
MEAN_MOTION_DOT = .74585E-3
MEAN_MOTION_DDOT = 0

CCSDS_OMM_VERS = 2.0
CREATION_DATE  = 
ORIGINATOR     = 

OBJECT_NAME    = STARLINK-35193
OBJECT_ID      = 2025-224H
CENTER_NAME    = EARTH
REF_FRAME      = TEME
TIME_SYSTEM    = UTC
MEAN_ELEMENT_THEORY = SGP/SGP4

EPOCH          = 2025-11-02T12:00:02.000160
MEAN_MOTION    = 15.49346067
ECCENTRICITY   = .0001272
INCLINATION    = 53.1593
RA_OF_ASC_NODE = 243.6116
ARG_OF_PERICENTER = 89.3500
MEAN_ANOMALY   = 140.4705

EPHEMERIS_TYPE = 0
CLASSIFICATION_TYPE = U
NORAD_CAT_ID   = 65889
ELEMENT_SET_NO = 999
REV_AT_EPOCH   = 541
BSTAR          = -.19036E-2
MEAN_MOTION_DOT = -.105048E-2
MEAN_MOTION_DDOT = 0

