STARLINK-35453          
1 65878U 25223AA  25306.50002315  .00075776  00000+0  18883-2 0  9991
2 65878  53.1604 166.7750 0000894 108.5552 357.5777 15.39576923  6023
STARLINK-35418          
1 65879U 25223AB  25304.91498995  .00099818  00000+0  17737-2 0  9998
2 65879  53.1607 174.1577 0001424 101.4176 258.6993 15.49409011  4462
STARLINK-35445          
1 65880U 25223AC  25306.50002315  .00082326  00000+0  20497-2 0  9997
2 65880  53.1601 166.6726 0000937  98.0326  59.6208 15.39565257  5874
STARLINK-35464          
1 65881U 25223AD  25305.62423875  .00080546  00000+0  14409-2 0  9996
2 65881  53.1604 170.7625 0001492  85.5620 274.5560 15.49317645  4579
STARLINK-35270          
1 65882U 25224A   25306.15988998  .00074257  00000+0  13293-2 0  9991
2 65882  53.1598 245.5125 0001088  84.2297 275.8836 15.49335550  5278
STARLINK-35367          
1 65883U 25224B   25306.09469789  .00108120  00000+0  19233-2 0  9994
2 65883  53.1597 245.8165 0001351  90.3489 269.7675 15.49337794  5263
STARLINK-35384          
1 65884U 25224C   25306.41622321  .00680195  00000+0  10536-1 0  9997
2 65884  53.1599 244.2664 0008709 339.6063  20.4598 15.51059072  5319
STARLINK-35415          
1 65885U 25224D   25306.35190615 -.01142481  00000+0 -25014-1 0  9998
2 65885  53.1599 244.5752 0007539 114.6042 245.5752 15.46145336  5257
STARLINK-35413          
1 65886U 25224E   25306.15714366  .00089369  00000+0  15938-2 0  9999
2 65886  53.1597 245.4918 0001772 100.5479 259.5730 15.49358571  5229
STARLINK-35332          
1 65887U 25224F   25306.15680281  .00116814  00000+0  20746-2 0  9997
2 65887  53.1595 245.4888 0002258  79.7540 280.3724 15.49342042  5300
STARLINK-35362          
1 65888U 25224G   25306.15954875  .00074585  00000+0  13352-2 0  9994
2 65888  53.1599 245.5089 0001500  81.9058 278.2122 15.49333307  5275
STARLINK-35193          
1 65889U 25224H   25306.50002315 -.00105048  00000+0 -19036-2 0  9993
2 65889  53.1593 243.6116 0001272  89.3500 140.4705 15.49346067  5410
